{"type": "FeatureCollection", "features": [ {"type": "Feature", "properties": {"norad_id": 66608, "name": "STARLINK-36036", "group": "last-30-days", "lat": 24.675097453756916, "lon": -29.78866940633758, "alt_km": 411.28739941350614, "timestamp": "2025-12-14T22:38:39.517328+00:00", "meta": {"OBJECT_NAME": "STARLINK-36036", "OBJECT_ID": "2025-270W", "EPOCH": "2025-12-14T06:34:31.700928", "MEAN_MOTION": 15.50602423, "ECCENTRICITY": 0.00016313, "INCLINATION": 42.9988, "RA_OF_ASC_NODE": 183.67, "ARG_OF_PERICENTER": 265.9794, "MEAN_ANOMALY": 94.088, "EPHEMERIS_TYPE": 0, "CLASSIFICATION_TYPE": "U", "NORAD_CAT_ID": 66608, "ELEMENT_SET_NO": 999, "REV_AT_EPOCH": 442, "BSTAR": 0.0019333539, "MEAN_MOTION_DOT": 0.00114854, "MEAN_MOTION_DDOT": 0}, "tle": {"line1": "1 66608U 25270W   25348.27397802  .00114854  00000+0  19334-2 0  9996", "line2": "2 66608  42.9988 183.6700 0001631 265.9794  94.0880 15.50602423  4423"}}, "geometry": {"type": "Point", "coordinates": [-29.78866940633758, 24.675097453756916]}}, {"type": "Feature", "properties": {"norad_id": 66609, "name": "STARLINK-36034", "group": "last-30-days", "lat": 23.54117217749173, "lon": -28.12747352308235, "alt_km": 411.48089396069736, "timestamp": "2025-12-14T22:38:39.517338+00:00", "meta": {"OBJECT_NAME": "STARLINK-36034", "OBJECT_ID": "2025-270X", "EPOCH": "2025-12-14T06:34:01.985376", "MEAN_MOTION": 15.50600819, "ECCENTRICITY": 0.00017596, "INCLINATION": 42.9989, "RA_OF_ASC_NODE": 183.6676, "ARG_OF_PERICENTER": 262.0789, "MEAN_ANOMALY": 97.9871, "EPHEMERIS_TYPE": 0, "CLASSIFICATION_TYPE": "U", "NORAD_CAT_ID": 66609, "ELEMENT_SET_NO": 999, "REV_AT_EPOCH": 442, "BSTAR": 0.0017241329, "MEAN_MOTION_DOT": 0.00102216, "MEAN_MOTION_DDOT": 0}, "tle": {"line1": "1 66609U 25270X   25348.27363409  .00102216  00000+0  17241-2 0  9997", "line2": "2 66609  42.9989 183.6676 0001759 262.0789  97.9871 15.50600819  4429"}}, "geometry": {"type": "Point", "coordinates": [-28.12747352308235, 23.54117217749173]}}, {"type": "Feature", "properties": {"norad_id": 66610, "name": "STARLINK-35680", "group": "last-30-days", "lat": 22.347222108431797, "lon": -26.43675984180971, "alt_km": 411.753243007468, "timestamp": "2025-12-14T22:38:39.517349+00:00", "meta": {"OBJECT_NAME": "STARLINK-35680", "OBJECT_ID": "2025-270Y", "EPOCH": "2025-12-14T06:33:32.282784", "MEAN_MOTION": 15.50607541, "ECCENTRICITY": 0.00017051, "INCLINATION": 42.9987, "RA_OF_ASC_NODE": 183.6643, "ARG_OF_PERICENTER": 275.4875, "MEAN_ANOMALY": 84.579, "EPHEMERIS_TYPE": 0, "CLASSIFICATION_TYPE": "U", "NORAD_CAT_ID": 66610, "ELEMENT_SET_NO": 999, "REV_AT_EPOCH": 469, "BSTAR": 0.0019646353, "MEAN_MOTION_DOT": 0.00116768, "MEAN_MOTION_DDOT": 0}, "tle": {"line1": "1 66610U 25270Y   25348.27329031  .00116768  00000+0  19646-2 0  9990", "line2": "2 66610  42.9987 183.6643 0001705 275.4875  84.5790 15.50607541  4698"}}, "geometry": {"type": "Point", "coordinates": [-26.43675984180971, 22.347222108431797]}}, {"type": "Feature", "properties": {"norad_id": 66611, "name": "STARLINK-35583", "group": "last-30-days", "lat": 21.171195821627983, "lon": -24.8217810157624, "alt_km": 411.93260612896574, "timestamp": "2025-12-14T22:38:39.517360+00:00", "meta": {"OBJECT_NAME": "STARLINK-35583", "OBJECT_ID": "2025-270Z", "EPOCH": "2025-12-14T06:33:02.505888", "MEAN_MOTION": 15.50607099, "ECCENTRICITY": 0.00018283, "INCLINATION": 42.999, "RA_OF_ASC_NODE": 183.6615, "ARG_OF_PERICENTER": 271.1187, "MEAN_ANOMALY": 88.9463, "EPHEMERIS_TYPE": 0, "CLASSIFICATION_TYPE": "U", "NORAD_CAT_ID": 66611, "ELEMENT_SET_NO": 999, "REV_AT_EPOCH": 469, "BSTAR": 0.001824079, "MEAN_MOTION_DOT": 0.0010827, "MEAN_MOTION_DDOT": 0}, "tle": {"line1": "1 66611U 25270Z   25348.27294567  .00108270  00000+0  18241-2 0  9995", "line2": "2 66611  42.9990 183.6615 0001828 271.1187  88.9463 15.50607099  4690"}}, "geometry": {"type": "Point", "coordinates": [-24.8217810157624, 21.171195821627983]}}, {"type": "Feature", "properties": {"norad_id": 66612, "name": "STARLINK-36039", "group": "last-30-days", "lat": 40.47120592166819, "lon": -113.78820739897131, "alt_km": 438.97121394736223, "timestamp": "2025-12-14T22:38:39.517370+00:00", "meta": {"OBJECT_NAME": "STARLINK-36039", "OBJECT_ID": "2025-270AA", "EPOCH": "2025-12-14T06:00:02.999808", "MEAN_MOTION": 15.40698403, "ECCENTRICITY": 0.00021215, "INCLINATION": 43, "RA_OF_ASC_NODE": 183.9169, "ARG_OF_PERICENTER": 266.9332, "MEAN_ANOMALY": 274.3131, "EPHEMERIS_TYPE": 0, "CLASSIFICATION_TYPE": "U", "NORAD_CAT_ID": 66612, "ELEMENT_SET_NO": 999, "REV_AT_EPOCH": 464, "BSTAR": 2.4860688e-05, "MEAN_MOTION_DOT": 7.35e-06, "MEAN_MOTION_DDOT": 0}, "tle": {"line1": "1 66612U 25270AA  25348.25003472  .00000735  00000+0  24861-4 0  9991", "line2": "2 66612  43.0000 183.9169 0002121 266.9332 274.3131 15.40698403  4649"}}, "geometry": {"type": "Point", "coordinates": [-113.78820739897131, 40.47120592166819]}}, {"type": "Feature", "properties": {"norad_id": 66613, "name": "STARLINK-36037", "group": "last-30-days", "lat": 42.63630080923881, "lon": -81.27083688993952, "alt_km": 441.52847255029155, "timestamp": "2025-12-14T22:38:39.517384+00:00", "meta": {"OBJECT_NAME": "STARLINK-36037", "OBJECT_ID": "2025-270AB", "EPOCH": "2025-12-14T06:00:02.999808", "MEAN_MOTION": 15.41652139, "ECCENTRICITY": 0.00013676, "INCLINATION": 43, "RA_OF_ASC_NODE": 183.8587, "ARG_OF_PERICENTER": 278.3113, "MEAN_ANOMALY": 287.3388, "EPHEMERIS_TYPE": 0, "CLASSIFICATION_TYPE": "U", "NORAD_CAT_ID": 66613, "ELEMENT_SET_NO": 999, "REV_AT_EPOCH": 464, "BSTAR": -0.034130694, "MEAN_MOTION_DOT": -0.01344158, "MEAN_MOTION_DDOT": 0}, "tle": {"line1": "1 66613U 25270AB  25348.25003472 -.01344158  00000+0 -34131-1 0  9993", "line2": "2 66613  43.0000 183.8587 0001367 278.3113 287.3388 15.41652139  4643"}}, "geometry": {"type": "Point", "coordinates": [-81.27083688993952, 42.63630080923881]}}, {"type": "Feature", "properties": {"norad_id": 66614, "name": "STARLINK-36040", "group": "last-30-days", "lat": 16.318552250258918, "lon": -18.593755170946103, "alt_km": 412.452678151124, "timestamp": "2025-12-14T22:38:39.517394+00:00", "meta": {"OBJECT_NAME": "STARLINK-36040", "OBJECT_ID": "2025-270AC", "EPOCH": "2025-12-14T06:31:04.245888", "MEAN_MOTION": 15.50595656, "ECCENTRICITY": 0.00017195, "INCLINATION": 42.9991, "RA_OF_ASC_NODE": 183.6503, "ARG_OF_PERICENTER": 267.9518, "MEAN_ANOMALY": 92.1145, "EPHEMERIS_TYPE": 0, "CLASSIFICATION_TYPE": "U", "NORAD_CAT_ID": 66614, "ELEMENT_SET_NO": 999, "REV_AT_EPOCH": 442, "BSTAR": 0.0020383303, "MEAN_MOTION_DOT": 0.00121178, "MEAN_MOTION_DDOT": 0}, "tle": {"line1": "1 66614U 25270AC  25348.27157692  .00121178  00000+0  20383-2 0  9997", "line2": "2 66614  42.9991 183.6503 0001719 267.9518  92.1145 15.50595656  4420"}}, "geometry": {"type": "Point", "coordinates": [-18.593755170946103, 16.318552250258918]}}, {"type": "Feature", "properties": {"norad_id": 66615, "name": "STARLINK-35988", "group": "last-30-days", "lat": 30.457936016431663, "lon": -39.35175493034961, "alt_km": 432.66843490419706, "timestamp": "2025-12-14T22:38:39.517404+00:00", "meta": {"OBJECT_NAME": "STARLINK-35988", "OBJECT_ID": "2025-270AD", "EPOCH": "2025-12-14T06:00:02.999808", "MEAN_MOTION": 15.46385081, "ECCENTRICITY": 0.00012744, "INCLINATION": 43.0003, "RA_OF_ASC_NODE": 183.798, "ARG_OF_PERICENTER": 265.2975, "MEAN_ANOMALY": 325.3789, "EPHEMERIS_TYPE": 0, "CLASSIFICATION_TYPE": "U", "NORAD_CAT_ID": 66615, "ELEMENT_SET_NO": 999, "REV_AT_EPOCH": 448, "BSTAR": -0.046573472, "MEAN_MOTION_DOT": -0.02092274, "MEAN_MOTION_DDOT": 0}, "tle": {"line1": "1 66615U 25270AD  25348.25003472 -.02092274  00000+0 -46573-1 0  9998", "line2": "2 66615  43.0003 183.7980 0001274 265.2975 325.3789 15.46385081  4486"}}, "geometry": {"type": "Point", "coordinates": [-39.35175493034961, 30.457936016431663]}}, {"type": "Feature", "properties": {"norad_id": 66616, "name": "STARLINK-35391", "group": "last-30-days", "lat": 15.06994105774977, "lon": -17.08262231601164, "alt_km": 412.61494811641296, "timestamp": "2025-12-14T22:38:39.517426+00:00", "meta": {"OBJECT_NAME": "STARLINK-35391", "OBJECT_ID": "2025-270AE", "EPOCH": "2025-12-14T06:30:34.272864", "MEAN_MOTION": 15.50604538, "ECCENTRICITY": 0.00018587, "INCLINATION": 42.9987, "RA_OF_ASC_NODE": 183.6472, "ARG_OF_PERICENTER": 262.8877, "MEAN_ANOMALY": 97.1772, "EPHEMERIS_TYPE": 0, "CLASSIFICATION_TYPE": "U", "NORAD_CAT_ID": 66616, "ELEMENT_SET_NO": 999, "REV_AT_EPOCH": 469, "BSTAR": 0.0016498568, "MEAN_MOTION_DOT": 0.00097755, "MEAN_MOTION_DDOT": 0}, "tle": {"line1": "1 66616U 25270AE  25348.27123001  .00097755  00000+0  16499-2 0  9992", "line2": "2 66616  42.9987 183.6472 0001858 262.8877  97.1772 15.50604538  4698"}}, "geometry": {"type": "Point", "coordinates": [-17.08262231601164, 15.06994105774977]}}, {"type": "Feature", "properties": {"norad_id": 66617, "name": "STARLINK-35940", "group": "last-30-days", "lat": 32.897417211046815, "lon": -32.29529511321615, "alt_km": 428.5591542727843, "timestamp": "2025-12-14T22:38:39.517439+00:00", "meta": {"OBJECT_NAME": "STARLINK-35940", "OBJECT_ID": "2025-271A", "EPOCH": "2025-12-14T06:00:02.999808", "MEAN_MOTION": 15.47506506, "ECCENTRICITY": 0.00013049, "INCLINATION": 53.16, "RA_OF_ASC_NODE": 180.0145, "ARG_OF_PERICENTER": 92.7913, "MEAN_ANOMALY": 142.783, "EPHEMERIS_TYPE": 0, "CLASSIFICATION_TYPE": "U", "NORAD_CAT_ID": 66617, "ELEMENT_SET_NO": 999, "REV_AT_EPOCH": 448, "BSTAR": -0.045673925, "MEAN_MOTION_DOT": -0.02114669, "MEAN_MOTION_DDOT": 0}, "tle": {"line1": "1 66617U 25271A   25348.25003472 -.02114669  00000+0 -45674-1 0  9995", "line2": "2 66617  53.1600 180.0145 0001304  92.7913 142.7830 15.47506506  4481"}}, "geometry": {"type": "Point", "coordinates": [-32.29529511321615, 32.897417211046815]}}]}